{
  "type": "FeatureCollection",
  "features": [
    {
      "type": "Feature",
      "properties": {
        "id": "EVT-FL01",
        "name": "Krishna Delta Inundation",
        "location": "Krishna Delta, AP",
        "severity": "HIGH",
        "confidence": 94,
        "area_km2": 128,
        "lat": 16.32,
        "lng": 80.51,
        "type": "FLOOD",
        "source": "SIMULATED_EO",
        "model": "FloodNet-Demo",
        "inference_ms": 82
      },
      "geometry": {
        "type": "Polygon",
        "coordinates": [
          [
            [
              80.31,
              16.16
            ],
            [
              80.75,
              16.12
            ],
            [
              80.71000000000001,
              16.54
            ],
            [
              80.35000000000001,
              16.5
            ],
            [
              80.31,
              16.16
            ]
          ]
        ]
      }
    },
    {
      "type": "Feature",
      "properties": {
        "id": "EVT-FL02",
        "name": "Brahmaputra Overflow Zone",
        "location": "Kaziranga, Assam",
        "severity": "CRITICAL",
        "confidence": 97,
        "area_km2": 310,
        "lat": 26.58,
        "lng": 93.17,
        "type": "FLOOD",
        "source": "SIMULATED_EO",
        "model": "FloodNet-Demo",
        "inference_ms": 82
      },
      "geometry": {
        "type": "Polygon",
        "coordinates": [
          [
            [
              92.97,
              26.419999999999998
            ],
            [
              93.41,
              26.38
            ],
            [
              93.37,
              26.799999999999997
            ],
            [
              93.01,
              26.759999999999998
            ],
            [
              92.97,
              26.419999999999998
            ]
          ]
        ]
      }
    },
    {
      "type": "Feature",
      "properties": {
        "id": "EVT-FL03",
        "name": "Mahanadi Basin Flood",
        "location": "Cuttack, Odisha",
        "severity": "HIGH",
        "confidence": 91,
        "area_km2": 184,
        "lat": 20.46,
        "lng": 85.88,
        "type": "FLOOD",
        "source": "SIMULATED_EO",
        "model": "FloodNet-Demo",
        "inference_ms": 82
      },
      "geometry": {
        "type": "Polygon",
        "coordinates": [
          [
            [
              85.67999999999999,
              20.3
            ],
            [
              86.11999999999999,
              20.26
            ],
            [
              86.08,
              20.68
            ],
            [
              85.72,
              20.64
            ],
            [
              85.67999999999999,
              20.3
            ]
          ]
        ]
      }
    },
    {
      "type": "Feature",
      "properties": {
        "id": "EVT-FL04",
        "name": "Kuttanad Waterway Surge",
        "location": "Alappuzha, Kerala",
        "severity": "MEDIUM",
        "confidence": 88,
        "area_km2": 64,
        "lat": 9.49,
        "lng": 76.33,
        "type": "FLOOD",
        "source": "SIMULATED_EO",
        "model": "FloodNet-Demo",
        "inference_ms": 82
      },
      "geometry": {
        "type": "Polygon",
        "coordinates": [
          [
            [
              76.13,
              9.33
            ],
            [
              76.57,
              9.290000000000001
            ],
            [
              76.53,
              9.71
            ],
            [
              76.17,
              9.67
            ],
            [
              76.13,
              9.33
            ]
          ]
        ]
      }
    }
  ]
}